[{"OBJECT_NAME":"HJ-2F","OBJECT_ID":"2023-116A","EPOCH":"2026-03-09T22:49:19.583040","MEAN_MOTION":15.20784398,"ECCENTRICITY":0.00100751,"INCLINATION":97.3886,"RA_OF_ASC_NODE":75.9939,"ARG_OF_PERICENTER":41.1134,"MEAN_ANOMALY":319.0859,"EPHEMERIS_TYPE":0,"CLASSIFICATION_TYPE":"U","NORAD_CAT_ID":57519,"ELEMENT_SET_NO":999,"REV_AT_EPOCH":14366,"BSTAR":0.00048860697,"MEAN_MOTION_DOT":0.00010719,"MEAN_MOTION_DDOT":0},{"OBJECT_NAME":"OBJECT J","OBJECT_ID":"2022-019J","EPOCH":"2026-03-09T22:43:41.570688","MEAN_MOTION":15.19970869,"ECCENTRICITY":0.00078987,"INCLINATION":97.3535,"RA_OF_ASC_NODE":134.3032,"ARG_OF_PERICENTER":206.0852,"MEAN_ANOMALY":153.9986,"EPHEMERIS_TYPE":0,"CLASSIFICATION_TYPE":"U","NORAD_CAT_ID":51832,"ELEMENT_SET_NO":999,"REV_AT_EPOCH":22272,"BSTAR":8.5341526e-5,"MEAN_MOTION_DOT":1.77e-5,"MEAN_MOTION_DDOT":0}]
