2022-019J               
1 51832U 22019J   26068.94700892  .00001770  00000+0  85342-4 0  9994
2 51832  97.3535 134.3032 0007898 206.0852 153.9986 15.19970869222725
HJ-2F                   
1 57519U 23116A   26068.95092110  .00010719  00000+0  48861-3 0  9996
2 57519  97.3886  75.9939 0010075  41.1134 319.0859 15.20784398143661
